[{"OBJECT_NAME":"COSMOS 2251 DEB","OBJECT_ID":"1993-036AKQ","EPOCH":"2026-03-05T16:27:44.596512","MEAN_MOTION":14.54730278,"ECCENTRICITY":0.0076951,"INCLINATION":74.0475,"RA_OF_ASC_NODE":161.3384,"ARG_OF_PERICENTER":258.9486,"MEAN_ANOMALY":100.3016,"EPHEMERIS_TYPE":0,"CLASSIFICATION_TYPE":"U","NORAD_CAT_ID":35446,"ELEMENT_SET_NO":999,"REV_AT_EPOCH":89214,"BSTAR":0.00016844173,"MEAN_MOTION_DOT":7.19e-6,"MEAN_MOTION_DDOT":0},{"OBJECT_NAME":"COSMOS 2251 DEB","OBJECT_ID":"1993-036AKS","EPOCH":"2026-03-06T14:34:10.041888","MEAN_MOTION":14.55063302,"ECCENTRICITY":0.00101404,"INCLINATION":73.9022,"RA_OF_ASC_NODE":289.5439,"ARG_OF_PERICENTER":92.285,"MEAN_ANOMALY":267.9473,"EPHEMERIS_TYPE":0,"CLASSIFICATION_TYPE":"U","NORAD_CAT_ID":35448,"ELEMENT_SET_NO":999,"REV_AT_EPOCH":88554,"BSTAR":0.00094016673,"MEAN_MOTION_DOT":4.03e-5,"MEAN_MOTION_DDOT":0},{"OBJECT_NAME":"COSMOS 2251 DEB","OBJECT_ID":"1993-036AKV","EPOCH":"2026-03-05T07:39:13.436064","MEAN_MOTION":15.48782036,"ECCENTRICITY":0.0032116,"INCLINATION":73.9251,"RA_OF_ASC_NODE":282.6216,"ARG_OF_PERICENTER":149.5996,"MEAN_ANOMALY":210.7087,"EPHEMERIS_TYPE":0,"CLASSIFICATION_TYPE":"U","NORAD_CAT_ID":35451,"ELEMENT_SET_NO":999,"REV_AT_EPOCH":68678,"BSTAR":0.0019164,"MEAN_MOTION_DOT":0.00106467,"MEAN_MOTION_DDOT":0},{"OBJECT_NAME":"COSMOS 2251 DEB","OBJECT_ID":"1993-036AKX","EPOCH":"2026-02-22T06:34:48.461664","MEAN_MOTION":14.38296689,"ECCENTRICITY":0.00667285,"INCLINATION":73.9969,"RA_OF_ASC_NODE":248.3507,"ARG_OF_PERICENTER":2.7472,"MEAN_ANOMALY":357.4034,"EPHEMERIS_TYPE":0,"CLASSIFICATION_TYPE":"U","NORAD_CAT_ID":35453,"ELEMENT_SET_NO":999,"REV_AT_EPOCH":87247,"BSTAR":0.00052426014,"MEAN_MOTION_DOT":1.61e-5,"MEAN_MOTION_DDOT":0},{"OBJECT_NAME":"COSMOS 2251 DEB","OBJECT_ID":"1993-036AKZ","EPOCH":"2026-03-06T15:06:12.592224","MEAN_MOTION":14.50176622,"ECCENTRICITY":0.01016049,"INCLINATION":74.0271,"RA_OF_ASC_NODE":137.2062,"ARG_OF_PERICENTER":222.7029,"MEAN_ANOMALY":136.6205,"EPHEMERIS_TYPE":0,"CLASSIFICATION_TYPE":"U","NORAD_CAT_ID":35455,"ELEMENT_SET_NO":999,"REV_AT_EPOCH":87759,"BSTAR":0.0011145361,"MEAN_MOTION_DOT":4.602e-5,"MEAN_MOTION_DDOT":0},{"OBJECT_NAME":"COSMOS 2251 DEB","OBJECT_ID":"1993-036ALA","EPOCH":"2026-03-05T09:13:54.470208","MEAN_MOTION":14.71428418,"ECCENTRICITY":0.0063697,"INCLINATION":73.9506,"RA_OF_ASC_NODE":316.2576,"ARG_OF_PERICENTER":147.027,"MEAN_ANOMALY":213.49,"EPHEMERIS_TYPE":0,"CLASSIFICATION_TYPE":"U","NORAD_CAT_ID":35456,"ELEMENT_SET_NO":999,"REV_AT_EPOCH":67090,"BSTAR":0.0017143,"MEAN_MOTION_DOT":0.00010948,"MEAN_MOTION_DDOT":0},{"OBJECT_NAME":"COSMOS 2251 DEB","OBJECT_ID":"1993-036ALD","EPOCH":"2026-02-28T05:50:07.481760","MEAN_MOTION":14.37611865,"ECCENTRICITY":0.0017967,"INCLINATION":73.8706,"RA_OF_ASC_NODE":43.2127,"ARG_OF_PERICENTER":326.5251,"MEAN_ANOMALY":33.4765,"EPHEMERIS_TYPE":0,"CLASSIFICATION_TYPE":"U","NORAD_CAT_ID":35459,"ELEMENT_SET_NO":999,"REV_AT_EPOCH":59475,"BSTAR":0.00028955,"MEAN_MOTION_DOT":8.43e-6,"MEAN_MOTION_DDOT":0},{"OBJECT_NAME":"COSMOS 2251 DEB","OBJECT_ID":"1993-036ALG","EPOCH":"2026-03-02T11:28:02.472096","MEAN_MOTION":14.30041703,"ECCENTRICITY":0.00827897,"INCLINATION":74.0357,"RA_OF_ASC_NODE":123.7856,"ARG_OF_PERICENTER":141.5288,"MEAN_ANOMALY":219.1805,"EPHEMERIS_TYPE":0,"CLASSIFICATION_TYPE":"U","NORAD_CAT_ID":35462,"ELEMENT_SET_NO":999,"REV_AT_EPOCH":67520,"BSTAR":0.0013139411,"MEAN_MOTION_DOT":3.497e-5,"MEAN_MOTION_DDOT":0},{"OBJECT_NAME":"COSMOS 2251 DEB","OBJECT_ID":"1993-036ALK","EPOCH":"2026-03-03T22:26:08.134368","MEAN_MOTION":14.44599759,"ECCENTRICITY":0.0064329,"INCLINATION":73.9972,"RA_OF_ASC_NODE":45.5519,"ARG_OF_PERICENTER":189.7492,"MEAN_ANOMALY":170.2423,"EPHEMERIS_TYPE":0,"CLASSIFICATION_TYPE":"U","NORAD_CAT_ID":35465,"ELEMENT_SET_NO":999,"REV_AT_EPOCH":88414,"BSTAR":0.00049755,"MEAN_MOTION_DOT":1.738e-5,"MEAN_MOTION_DDOT":0},{"OBJECT_NAME":"COSMOS 2251 DEB","OBJECT_ID":"1993-036ALP","EPOCH":"2026-03-05T19:16:18.039648","MEAN_MOTION":14.49904766,"ECCENTRICITY":0.00769532,"INCLINATION":74.0149,"RA_OF_ASC_NODE":227.7257,"ARG_OF_PERICENTER":0.9763,"MEAN_ANOMALY":359.1532,"EPHEMERIS_TYPE":0,"CLASSIFICATION_TYPE":"U","NORAD_CAT_ID":35469,"ELEMENT_SET_NO":999,"REV_AT_EPOCH":89315,"BSTAR":0.00013070889,"MEAN_MOTION_DOT":4.95e-6,"MEAN_MOTION_DDOT":0},{"OBJECT_NAME":"COSMOS 2251 DEB","OBJECT_ID":"1993-036ALV","EPOCH":"2026-03-04T05:44:02.513472","MEAN_MOTION":14.71893841,"ECCENTRICITY":0.00162057,"INCLINATION":74.0241,"RA_OF_ASC_NODE":7.2646,"ARG_OF_PERICENTER":61.1953,"MEAN_ANOMALY":299.0844,"EPHEMERIS_TYPE":0,"CLASSIFICATION_TYPE":"U","NORAD_CAT_ID":35475,"ELEMENT_SET_NO":999,"REV_AT_EPOCH":66815,"BSTAR":0.0033017498,"MEAN_MOTION_DOT":0.00020752,"MEAN_MOTION_DDOT":0},{"OBJECT_NAME":"COSMOS 2251 DEB","OBJECT_ID":"1993-036ALW","EPOCH":"2026-03-06T12:12:12.019680","MEAN_MOTION":14.78249233,"ECCENTRICITY":0.00164294,"INCLINATION":73.9749,"RA_OF_ASC_NODE":256.1031,"ARG_OF_PERICENTER":224.7533,"MEAN_ANOMALY":164.9874,"EPHEMERIS_TYPE":0,"CLASSIFICATION_TYPE":"U","NORAD_CAT_ID":35476,"ELEMENT_SET_NO":999,"REV_AT_EPOCH":89124,"BSTAR":0.0018372616,"MEAN_MOTION_DOT":0.00013359,"MEAN_MOTION_DDOT":0},{"OBJECT_NAME":"COSMOS 2251 DEB","OBJECT_ID":"1993-036ALX","EPOCH":"2026-03-02T15:12:44.322048","MEAN_MOTION":13.84237208,"ECCENTRICITY":0.0278732,"INCLINATION":73.9019,"RA_OF_ASC_NODE":42.8201,"ARG_OF_PERICENTER":32.3618,"MEAN_ANOMALY":329.4263,"EPHEMERIS_TYPE":0,"CLASSIFICATION_TYPE":"U","NORAD_CAT_ID":35580,"ELEMENT_SET_NO":999,"REV_AT_EPOCH":63362,"BSTAR":0.0021886,"MEAN_MOTION_DOT":3.278e-5,"MEAN_MOTION_DDOT":0},{"OBJECT_NAME":"COSMOS 2251 DEB","OBJECT_ID":"1993-036AMA","EPOCH":"2026-03-03T17:15:21.252672","MEAN_MOTION":13.55556277,"ECCENTRICITY":0.03811351,"INCLINATION":73.9155,"RA_OF_ASC_NODE":80.7639,"ARG_OF_PERICENTER":90.1045,"MEAN_ANOMALY":274.3731,"EPHEMERIS_TYPE":0,"CLASSIFICATION_TYPE":"U","NORAD_CAT_ID":35583,"ELEMENT_SET_NO":999,"REV_AT_EPOCH":83509,"BSTAR":0.00098746383,"MEAN_MOTION_DOT":1.075e-5,"MEAN_MOTION_DDOT":0},{"OBJECT_NAME":"COSMOS 2251 DEB","OBJECT_ID":"1993-036AMC","EPOCH":"2026-03-05T20:35:45.386016","MEAN_MOTION":13.75571438,"ECCENTRICITY":0.03070691,"INCLINATION":73.9711,"RA_OF_ASC_NODE":209.6097,"ARG_OF_PERICENTER":104.7646,"MEAN_ANOMALY":46.4433,"EPHEMERIS_TYPE":0,"CLASSIFICATION_TYPE":"U","NORAD_CAT_ID":35585,"ELEMENT_SET_NO":999,"REV_AT_EPOCH":65206,"BSTAR":0.0025900923,"MEAN_MOTION_DOT":3.503e-5,"MEAN_MOTION_DDOT":0},{"OBJECT_NAME":"COSMOS 2251 DEB","OBJECT_ID":"1993-036AMD","EPOCH":"2026-03-02T13:25:37.759584","MEAN_MOTION":13.52179228,"ECCENTRICITY":0.0403278,"INCLINATION":74.0205,"RA_OF_ASC_NODE":174.6034,"ARG_OF_PERICENTER":32.7225,"MEAN_ANOMALY":344.3851,"EPHEMERIS_TYPE":0,"CLASSIFICATION_TYPE":"U","NORAD_CAT_ID":35586,"ELEMENT_SET_NO":999,"REV_AT_EPOCH":61461,"BSTAR":0.00042485,"MEAN_MOTION_DOT":4.47e-6,"MEAN_MOTION_DDOT":0},{"OBJECT_NAME":"COSMOS 2251 DEB","OBJECT_ID":"1993-036AME","EPOCH":"2026-03-06T12:02:05.632512","MEAN_MOTION":14.71813297,"ECCENTRICITY":0.00998578,"INCLINATION":74.0021,"RA_OF_ASC_NODE":255.2483,"ARG_OF_PERICENTER":61.2182,"MEAN_ANOMALY":299.8974,"EPHEMERIS_TYPE":0,"CLASSIFICATION_TYPE":"U","NORAD_CAT_ID":35587,"ELEMENT_SET_NO":999,"REV_AT_EPOCH":67578,"BSTAR":0.00028076366,"MEAN_MOTION_DOT":1.863e-5,"MEAN_MOTION_DDOT":0},{"OBJECT_NAME":"COSMOS 2251 DEB","OBJECT_ID":"1993-036AML","EPOCH":"2026-03-04T21:19:01.579872","MEAN_MOTION":14.26081376,"ECCENTRICITY":0.01004268,"INCLINATION":74.0856,"RA_OF_ASC_NODE":140.5421,"ARG_OF_PERICENTER":127.5359,"MEAN_ANOMALY":233.4968,"EPHEMERIS_TYPE":0,"CLASSIFICATION_TYPE":"U","NORAD_CAT_ID":35593,"ELEMENT_SET_NO":999,"REV_AT_EPOCH":86236,"BSTAR":0.00097433951,"MEAN_MOTION_DOT":2.432e-5,"MEAN_MOTION_DDOT":0},{"OBJECT_NAME":"COSMOS 2251 DEB","OBJECT_ID":"1993-036AMM","EPOCH":"2026-03-03T01:54:39.373632","MEAN_MOTION":14.90567528,"ECCENTRICITY":0.00270798,"INCLINATION":73.8068,"RA_OF_ASC_NODE":303.7229,"ARG_OF_PERICENTER":37.1087,"MEAN_ANOMALY":323.1959,"EPHEMERIS_TYPE":0,"CLASSIFICATION_TYPE":"U","NORAD_CAT_ID":35594,"ELEMENT_SET_NO":999,"REV_AT_EPOCH":89381,"BSTAR":0.0015008429,"MEAN_MOTION_DOT":0.00014776,"MEAN_MOTION_DDOT":0},{"OBJECT_NAME":"COSMOS 2251 DEB","OBJECT_ID":"1993-036AMV","EPOCH":"2026-03-06T19:23:55.543200","MEAN_MOTION":15.39369041,"ECCENTRICITY":0.0078188,"INCLINATION":73.9962,"RA_OF_ASC_NODE":0.8137,"ARG_OF_PERICENTER":43.2048,"MEAN_ANOMALY":344.0648,"EPHEMERIS_TYPE":0,"CLASSIFICATION_TYPE":"U","NORAD_CAT_ID":35602,"ELEMENT_SET_NO":999,"REV_AT_EPOCH":91383,"BSTAR":0.00075995,"MEAN_MOTION_DOT":0.00033164,"MEAN_MOTION_DDOT":0},{"OBJECT_NAME":"COSMOS 2251 DEB","OBJECT_ID":"1993-036AMZ","EPOCH":"2026-03-06T10:56:57.630048","MEAN_MOTION":13.41330748,"ECCENTRICITY":0.04553644,"INCLINATION":73.8058,"RA_OF_ASC_NODE":237.3567,"ARG_OF_PERICENTER":69.5994,"MEAN_ANOMALY":295.3397,"EPHEMERIS_TYPE":0,"CLASSIFICATION_TYPE":"U","NORAD_CAT_ID":35606,"ELEMENT_SET_NO":999,"REV_AT_EPOCH":62162,"BSTAR":0.00069770102,"MEAN_MOTION_DOT":6.96e-6,"MEAN_MOTION_DDOT":0},{"OBJECT_NAME":"COSMOS 2251 DEB","OBJECT_ID":"1993-036ANE","EPOCH":"2026-03-06T06:43:44.596128","MEAN_MOTION":14.75630739,"ECCENTRICITY":0.00166768,"INCLINATION":74.0213,"RA_OF_ASC_NODE":16.0702,"ARG_OF_PERICENTER":71.7035,"MEAN_ANOMALY":288.5951,"EPHEMERIS_TYPE":0,"CLASSIFICATION_TYPE":"U","NORAD_CAT_ID":35611,"ELEMENT_SET_NO":999,"REV_AT_EPOCH":88521,"BSTAR":0.0029269535,"MEAN_MOTION_DOT":0.00020055,"MEAN_MOTION_DDOT":0},{"OBJECT_NAME":"COSMOS 2251 DEB","OBJECT_ID":"1993-036ANH","EPOCH":"2026-03-03T23:39:28.901088","MEAN_MOTION":14.67892246,"ECCENTRICITY":0.00755878,"INCLINATION":73.9594,"RA_OF_ASC_NODE":169.8141,"ARG_OF_PERICENTER":2.0852,"MEAN_ANOMALY":358.0617,"EPHEMERIS_TYPE":0,"CLASSIFICATION_TYPE":"U","NORAD_CAT_ID":35614,"ELEMENT_SET_NO":999,"REV_AT_EPOCH":88921,"BSTAR":0.0010165731,"MEAN_MOTION_DOT":6.04e-5,"MEAN_MOTION_DDOT":0}]
